{"type": "FeatureCollection", "features": [{"type": "Feature", "properties": {"norad_id": 66514, "name": "SENTINEL-6B", "group": "last-30-days", "lat": -31.337004136727252, "lon": -11.316850539881107, "alt_km": 1336.9339057804154, "timestamp": "2025-12-17T07:00:45.610824+00:00", "meta": {"OBJECT_NAME": "SENTINEL-6B", "OBJECT_ID": "2025-264A", "EPOCH": "2025-12-12T06:01:21.430272", "MEAN_MOTION": 12.81479576, "ECCENTRICITY": 0.0007847, "INCLINATION": 66.0385, "RA_OF_ASC_NODE": 163.4531, "ARG_OF_PERICENTER": 270.1745, "MEAN_ANOMALY": 89.8371, "EPHEMERIS_TYPE": 0, "CLASSIFICATION_TYPE": "U", "NORAD_CAT_ID": 66514, "ELEMENT_SET_NO": 999, "REV_AT_EPOCH": 322, "BSTAR": 0.00018864317, "MEAN_MOTION_DOT": -1.7e-07, "MEAN_MOTION_DDOT": 0}, "tle": {"line1": "1 66514U 25264A   25346.25094248 -.00000017  00000+0  18864-3 0  9993", "line2": "2 66514  66.0385 163.4531 0007847 270.1745  89.8371 12.81479576  3220"}}, "geometry": {"type": "Point", "coordinates": [-11.316850539881107, -31.337004136727252]}}, {"type": "Feature", "properties": {"norad_id": 66516, "name": "STARLINK-35924", "group": "last-30-days", "lat": 1.1225505104389635, "lon": -153.32039025982013, "alt_km": 443.66172992485826, "timestamp": "2025-12-17T07:00:45.610884+00:00", "meta": {"OBJECT_NAME": "STARLINK-35924", "OBJECT_ID": "2025-265A", "EPOCH": "2025-12-16T11:34:20.967168", "MEAN_MOTION": 15.40725537, "ECCENTRICITY": 0.00016596, "INCLINATION": 43.0003, "RA_OF_ASC_NODE": 32.5537, "ARG_OF_PERICENTER": 275.1599, "MEAN_ANOMALY": 84.9068, "EPHEMERIS_TYPE": 0, "CLASSIFICATION_TYPE": "U", "NORAD_CAT_ID": 66516, "ELEMENT_SET_NO": 999, "REV_AT_EPOCH": 433, "BSTAR": 0.00084466372, "MEAN_MOTION_DOT": 0.00035173, "MEAN_MOTION_DDOT": 0}, "tle": {"line1": "1 66516U 25265A   25350.48218712  .00035173  00000+0  84466-3 0  9991", "line2": "2 66516  43.0003  32.5537 0001659 275.1599  84.9068 15.40725537  4334"}}, "geometry": {"type": "Point", "coordinates": [-153.32039025982013, 1.1225505104389635]}}, {"type": "Feature", "properties": {"norad_id": 66517, "name": "STARLINK-35937", "group": "last-30-days", "lat": 0.9905044620281745, "lon": 28.506373855227405, "alt_km": 435.1150699563932, "timestamp": "2025-12-17T07:00:45.610902+00:00", "meta": {"OBJECT_NAME": "STARLINK-35937", "OBJECT_ID": "2025-265B", "EPOCH": "2025-12-16T22:00:03.000096", "MEAN_MOTION": 15.45189859, "ECCENTRICITY": 0.00018891, "INCLINATION": 43.0014, "RA_OF_ASC_NODE": 29.6197, "ARG_OF_PERICENTER": 273.0019, "MEAN_ANOMALY": 158.3412, "EPHEMERIS_TYPE": 0, "CLASSIFICATION_TYPE": "U", "NORAD_CAT_ID": 66517, "ELEMENT_SET_NO": 999, "REV_AT_EPOCH": 566, "BSTAR": -0.044137249, "MEAN_MOTION_DOT": -0.01922229, "MEAN_MOTION_DDOT": 0}, "tle": {"line1": "1 66517U 25265B   25350.91670139 -.01922229  00000+0 -44137-1 0  9994", "line2": "2 66517  43.0014  29.6197 0001889 273.0019 158.3412 15.45189859  5667"}}, "geometry": {"type": "Point", "coordinates": [28.506373855227405, 0.9905044620281745]}}, {"type": "Feature", "properties": {"norad_id": 66518, "name": "STARLINK-35962", "group": "last-30-days", "lat": -42.47783104836812, "lon": -51.623404754640895, "alt_km": 445.7670780843255, "timestamp": "2025-12-17T07:00:45.610916+00:00", "meta": {"OBJECT_NAME": "STARLINK-35962", "OBJECT_ID": "2025-265C", "EPOCH": "2025-12-16T11:08:32.658432", "MEAN_MOTION": 15.40740812, "ECCENTRICITY": 0.00020625, "INCLINATION": 43.0023, "RA_OF_ASC_NODE": 32.4143, "ARG_OF_PERICENTER": 244.4257, "MEAN_ANOMALY": 115.6386, "EPHEMERIS_TYPE": 0, "CLASSIFICATION_TYPE": "U", "NORAD_CAT_ID": 66518, "ELEMENT_SET_NO": 999, "REV_AT_EPOCH": 433, "BSTAR": 0.0013292037, "MEAN_MOTION_DOT": 0.00055704, "MEAN_MOTION_DDOT": 0}, "tle": {"line1": "1 66518U 25265C   25350.46426688  .00055704  00000+0  13292-2 0  9994", "line2": "2 66518  43.0023  32.4143 0002062 244.4257 115.6386 15.40740812  4337"}}, "geometry": {"type": "Point", "coordinates": [-51.623404754640895, -42.47783104836812]}}, {"type": "Feature", "properties": {"norad_id": 66519, "name": "STARLINK-35931", "group": "last-30-days", "lat": 16.788414596944165, "lon": 46.27312366843776, "alt_km": 412.8069087192098, "timestamp": "2025-12-17T07:00:45.610930+00:00", "meta": {"OBJECT_NAME": "STARLINK-35931", "OBJECT_ID": "2025-265D", "EPOCH": "2025-12-16T22:00:03.000096", "MEAN_MOTION": 15.50528873, "ECCENTRICITY": 0.00025788, "INCLINATION": 43.0011, "RA_OF_ASC_NODE": 29.58, "ARG_OF_PERICENTER": 279.8471, "MEAN_ANOMALY": 166.764, "EPHEMERIS_TYPE": 0, "CLASSIFICATION_TYPE": "U", "NORAD_CAT_ID": 66519, "ELEMENT_SET_NO": 999, "REV_AT_EPOCH": 566, "BSTAR": 0.00078936835, "MEAN_MOTION_DOT": 0.0004616, "MEAN_MOTION_DDOT": 0}, "tle": {"line1": "1 66519U 25265D   25350.91670139  .00046160  00000+0  78937-3 0  9991", "line2": "2 66519  43.0011  29.5800 0002578 279.8471 166.7640 15.50528873  5663"}}, "geometry": {"type": "Point", "coordinates": [46.27312366843776, 16.788414596944165]}}, {"type": "Feature", "properties": {"norad_id": 66520, "name": "STARLINK-35952", "group": "last-30-days", "lat": -30.394021868335816, "lon": -113.22721128025469, "alt_km": 446.1474093497736, "timestamp": "2025-12-17T07:00:45.610943+00:00", "meta": {"OBJECT_NAME": "STARLINK-35952", "OBJECT_ID": "2025-265E", "EPOCH": "2025-12-16T22:00:03.000096", "MEAN_MOTION": 15.40672831, "ECCENTRICITY": 0.00011504, "INCLINATION": 43.0008, "RA_OF_ASC_NODE": 29.9287, "ARG_OF_PERICENTER": 257.3628, "MEAN_ANOMALY": 45.3681, "EPHEMERIS_TYPE": 0, "CLASSIFICATION_TYPE": "U", "NORAD_CAT_ID": 66520, "ELEMENT_SET_NO": 999, "REV_AT_EPOCH": 566, "BSTAR": 0.00046257475, "MEAN_MOTION_DOT": 0.0001905, "MEAN_MOTION_DDOT": 0}, "tle": {"line1": "1 66520U 25265E   25350.91670139  .00019050  00000+0  46257-3 0  9991", "line2": "2 66520  43.0008  29.9287 0001150 257.3628  45.3681 15.40672831  5664"}}, "geometry": {"type": "Point", "coordinates": [-113.22721128025469, -30.394021868335816]}}, {"type": "Feature", "properties": {"norad_id": 66521, "name": "STARLINK-35915", "group": "last-30-days", "lat": -28.80326205225039, "lon": -8.608956865537145, "alt_km": 446.2986741988607, "timestamp": "2025-12-17T07:00:45.610955+00:00", "meta": {"OBJECT_NAME": "STARLINK-35915", "OBJECT_ID": "2025-265F", "EPOCH": "2025-12-16T12:32:13.779744", "MEAN_MOTION": 15.40809912, "ECCENTRICITY": 9.8e-05, "INCLINATION": 42.9962, "RA_OF_ASC_NODE": 31.9941, "ARG_OF_PERICENTER": 254.1933, "MEAN_ANOMALY": 105.8815, "EPHEMERIS_TYPE": 0, "CLASSIFICATION_TYPE": "U", "NORAD_CAT_ID": 66521, "ELEMENT_SET_NO": 999, "REV_AT_EPOCH": 434, "BSTAR": -0.0017493586, "MEAN_MOTION_DOT": -0.00072947, "MEAN_MOTION_DDOT": 0}, "tle": {"line1": "1 66521U 25265F   25350.52238171 -.00072947  00000+0 -17494-2 0  9991", "line2": "2 66521  42.9962  31.9941 0000980 254.1933 105.8815 15.40809912  4343"}}, "geometry": {"type": "Point", "coordinates": [-8.608956865537145, -28.80326205225039]}}, {"type": "Feature", "properties": {"norad_id": 66522, "name": "STARLINK-35946", "group": "last-30-days", "lat": 20.79937870444532, "lon": 51.42429002025379, "alt_km": 410.9566690011043, "timestamp": "2025-12-17T07:00:45.610966+00:00", "meta": {"OBJECT_NAME": "STARLINK-35946", "OBJECT_ID": "2025-265G", "EPOCH": "2025-12-16T03:03:11.151360", "MEAN_MOTION": 15.50628679, "ECCENTRICITY": 0.00014256, "INCLINATION": 42.9976, "RA_OF_ASC_NODE": 34.1834, "ARG_OF_PERICENTER": 304.2198, "MEAN_ANOMALY": 55.8527, "EPHEMERIS_TYPE": 0, "CLASSIFICATION_TYPE": "U", "NORAD_CAT_ID": 66522, "ELEMENT_SET_NO": 999, "REV_AT_EPOCH": 428, "BSTAR": 0.0011852833, "MEAN_MOTION_DOT": 0.00069941, "MEAN_MOTION_DDOT": 0}, "tle": {"line1": "1 66522U 25265G   25350.12721240  .00069941  00000+0  11853-2 0  9993", "line2": "2 66522  42.9976  34.1834 0001425 304.2198  55.8527 15.50628679  4287"}}, "geometry": {"type": "Point", "coordinates": [51.42429002025379, 20.79937870444532]}}, {"type": "Feature", "properties": {"norad_id": 66523, "name": "STARLINK-35969", "group": "last-30-days", "lat": 21.802723765849958, "lon": 52.78631423367229, "alt_km": 411.69759088584397, "timestamp": "2025-12-17T07:00:45.610977+00:00", "meta": {"OBJECT_NAME": "STARLINK-35969", "OBJECT_ID": "2025-265H", "EPOCH": "2025-12-16T12:19:12.744480", "MEAN_MOTION": 15.50613427, "ECCENTRICITY": 0.00039504, "INCLINATION": 43.0009, "RA_OF_ASC_NODE": 31.9222, "ARG_OF_PERICENTER": 290.4758, "MEAN_ANOMALY": 69.5678, "EPHEMERIS_TYPE": 0, "CLASSIFICATION_TYPE": "U", "NORAD_CAT_ID": 66523, "ELEMENT_SET_NO": 999, "REV_AT_EPOCH": 434, "BSTAR": 0.00048960469, "MEAN_MOTION_DOT": 0.00028527, "MEAN_MOTION_DDOT": 0}, "tle": {"line1": "1 66523U 25265H   25350.51334195  .00028527  00000+0  48960-3 0  9991", "line2": "2 66523  43.0009  31.9222 0003950 290.4758  69.5678 15.50613427  4347"}}, "geometry": {"type": "Point", "coordinates": [52.78631423367229, 21.802723765849958]}}, {"type": "Feature", "properties": {"norad_id": 66524, "name": "STARLINK-35687", "group": "last-30-days", "lat": -15.59665497602019, "lon": -134.74769862541868, "alt_km": 444.8878448567966, "timestamp": "2025-12-17T07:00:45.610988+00:00", "meta": {"OBJECT_NAME": "STARLINK-35687", "OBJECT_ID": "2025-265J", "EPOCH": "2025-12-16T11:27:54.032544", "MEAN_MOTION": 15.40708507, "ECCENTRICITY": 0.0001563, "INCLINATION": 43.001, "RA_OF_ASC_NODE": 32.517, "ARG_OF_PERICENTER": 265.5427, "MEAN_ANOMALY": 94.5251, "EPHEMERIS_TYPE": 0, "CLASSIFICATION_TYPE": "U", "NORAD_CAT_ID": 66524, "ELEMENT_SET_NO": 999, "REV_AT_EPOCH": 433, "BSTAR": 0.0013900503, "MEAN_MOTION_DOT": 0.00058223, "MEAN_MOTION_DDOT": 0}, "tle": {"line1": "1 66524U 25265J   25350.47770871  .00058223  00000+0  13901-2 0  9994", "line2": "2 66524  43.0010  32.5170 0001563 265.5427  94.5251 15.40708507  4330"}}, "geometry": {"type": "Point", "coordinates": [-134.74769862541868, -15.59665497602019]}}]}